[{"OBJECT_NAME":"OBJECT D","OBJECT_ID":"2025-108D","EPOCH":"2026-03-09T23:55:58.918944","MEAN_MOTION":15.17741465,"ECCENTRICITY":0.00119931,"INCLINATION":97.4751,"RA_OF_ASC_NODE":145.8386,"ARG_OF_PERICENTER":357.4422,"MEAN_ANOMALY":2.6748,"EPHEMERIS_TYPE":0,"CLASSIFICATION_TYPE":"U","NORAD_CAT_ID":64090,"ELEMENT_SET_NO":999,"REV_AT_EPOCH":4431,"BSTAR":0.00035350679,"MEAN_MOTION_DOT":7.081e-5,"MEAN_MOTION_DDOT":0},{"OBJECT_NAME":"OBJECT A","OBJECT_ID":"2025-226A","EPOCH":"2026-03-09T23:47:47.685696","MEAN_MOTION":15.14747363,"ECCENTRICITY":0.00155421,"INCLINATION":97.6484,"RA_OF_ASC_NODE":148.8014,"ARG_OF_PERICENTER":127.7306,"MEAN_ANOMALY":232.5337,"EPHEMERIS_TYPE":0,"CLASSIFICATION_TYPE":"U","NORAD_CAT_ID":65938,"ELEMENT_SET_NO":999,"REV_AT_EPOCH":2267,"BSTAR":0.00057458801,"MEAN_MOTION_DOT":0.00010623,"MEAN_MOTION_DDOT":0}]
